[{"OBJECT_NAME":"STARLINK-30911","OBJECT_ID":"2023-178A","EPOCH":"2026-03-09T22:48:18.759168","MEAN_MOTION":15.30193711,"ECCENTRICITY":8.472e-5,"INCLINATION":53.1627,"RA_OF_ASC_NODE":359.6943,"ARG_OF_PERICENTER":84.102,"MEAN_ANOMALY":276.0077,"EPHEMERIS_TYPE":0,"CLASSIFICATION_TYPE":"U","NORAD_CAT_ID":58374,"ELEMENT_SET_NO":999,"REV_AT_EPOCH":12992,"BSTAR":-1.1912145e-5,"MEAN_MOTION_DOT":-7.12e-6,"MEAN_MOTION_DDOT":0},{"OBJECT_NAME":"GEOSCAN 3 (RS92S3)","OBJECT_ID":"2025-155T","EPOCH":"2026-03-09T22:52:10.587648","MEAN_MOTION":15.31696739,"ECCENTRICITY":0.00068078,"INCLINATION":97.4455,"RA_OF_ASC_NODE":37.9971,"ARG_OF_PERICENTER":154.1387,"MEAN_ANOMALY":206.0196,"EPHEMERIS_TYPE":0,"CLASSIFICATION_TYPE":"U","NORAD_CAT_ID":64893,"ELEMENT_SET_NO":999,"REV_AT_EPOCH":6564,"BSTAR":0.00078414081,"MEAN_MOTION_DOT":0.00023985,"MEAN_MOTION_DDOT":0}]
